[
    {
        "Altitude(m)": 604969.0889988419,
        "Argument of Periapsis(deg)": 0.0,
        "Eccentricity": 0.0,
        "Inclination(deg)": 60.0,
        "Latitude(deg)": -0.09254584681457373,
        "Longitude(deg)": 124.97752754182851,
        "Mean Anomaly(deg)": 0.0,
        "RAAN(deg)": 225.0,
        "Satellite Name": "Test1 990",
        "Satellite Number": 990,
        "Semi-Major Axis(m)": 6980739.136638005,
        "Time(s)": 0
    },
    {
        "Altitude(m)": 604900.0292965983,
        "Argument of Periapsis(deg)": 0.00010418945913296404,
        "Eccentricity": 0.0,
        "Inclination(deg)": 60.0,
        "Latitude(deg)": 0.447879862087717,
        "Longitude(deg)": 125.24565094360595,
        "Mean Anomaly(deg)": 0.6201061454618275,
        "RAAN(deg)": 224.99957995086024,
        "Satellite Name": "Test1 990",
        "Satellite Number": 990,
        "Semi-Major Axis(m)": 6980739.136638005,
        "Time(s)": 10
    }
]